UME (ISS)               
1 08709U 76019A   24201.19820556  .00000080  00000+0  14598-3 0  9999
2 08709  69.6738 150.8025 0009327  32.4357  67.4880 13.71618919421647
UME-2 (ISS-B)           
1 10674U 78018A   24200.79050674  .00000003  00000+0  85529-4 0  9993
2 10674  69.3602 219.4816 0161987 144.2319  27.4954 13.43671244276813
ISS (ZARYA)             
1 25544U 98067A   24201.18392616  .00018005  00000+0  32199-3 0  9995
2 25544  51.6373 156.8272 0010240  82.8354 277.3799 15.50020473463515
SWISSCUBE               
1 35932U 09051B   24200.91288378  .00002996  00000+0  64515-3 0  9990
2 35932  98.4677  84.8560 0006322 211.9283 148.1533 14.59220253787184
AISSAT 1                
1 36797U 10035C   24200.67999987  .00004870  00000+0  49344-3 0  9998
2 36797  98.1828  63.3901 0009733 195.9635 164.1276 14.91389103759863
AISSAT 2                
1 40075U 14037G   24201.20954491  .00005303  00000+0  59631-3 0  9991
2 40075  98.3338 121.9989 0006026  33.9637 326.1962 14.87144867542826
ISS (NAUKA)             
1 49044U 21066A   24200.86156157  .00019042  00000+0  34016-3 0  9995
2 49044  51.6371 158.4240 0010248  81.5919 278.6232 15.50009591169177
OUTPOST MISSION 1       
1 56226U 23084BK  24200.91545874  .00018454  00000+0  77652-3 0  9990
2 56226  97.5440 320.3037 0007492 254.7071 105.3337 15.23411003 60994
OUTPOST MISSION 2       
1 58334U 23174CG  24201.17128328  .00015748  00000+0  71680-3 0  9990
2 58334  97.4616 275.8270 0012747  99.1284 261.1395 15.20714284 38588
